RADUGA 1 [-]            
1 08513U 75123A   22258.13262071  .00000002  00000+0  00000+0 0  9996
2 08513   6.3285 287.3332 0008314 217.3427 321.3450  1.00270406181067
RADUGA 2 [-]            
1 09416U 76092A   22258.60145841 -.00000124  00000+0  00000+0 0  9998
2 09416   6.9905 289.3135 0025983 357.6837   1.1066  1.00298380115594
RADUGA 3 [-]            
1 10159U 77071A   22258.55582980 -.00000310  00000+0  00000+0 0  9992
2 10159   7.6061 291.9077 0009893 234.9918 128.6599  1.00211227163307
RADUGA 4 [-]            
1 10987U 78073A   22258.23035494  .00000135  00000+0  00000+0 0  9996
2 10987   8.2319 295.4223 0007613 355.7086 185.3170  1.00293317105858
RADUGA 5 [-]            
1 11343U 79035A   22258.60577787 -.00000191  00000+0  00000+0 0  9992
2 11343   8.6901 298.1747 0007141 175.5688 183.6869  1.00262505115604
RADUGA 6 [-]            
1 11708U 80016A   22258.13279510 -.00000022  00000+0  00000+0 0  9992
2 11708   9.0512 301.2491 0003616 202.9301 322.6616  1.00340654108412
RADUGA 7 [-]            
1 12003U 80081A   22258.40145899 -.00000211  00000+0  00000+0 0  9995
2 12003   9.2347 303.1940 0010229 258.4207 270.1625  1.00287192109569
RADUGA 8 [-]            
1 12351U 81027A   22258.55899525 -.00000356  00000+0  00000+0 0  9990
2 12351   9.5656 303.7822 0083174 229.5285 128.0982  1.00402553108780
RADUGA 9 [-]            
1 12618U 81069A   22257.74852786  .00000039  00000+0  00000+0 0  9997
2 12618   9.7870 306.7483 0004816 161.4330 212.0116  1.00346125 33594
RADUGA 10 [-]           
1 12897U 81102A   22258.60464000 -.00000190  00000+0  00000+0 0  9997
2 12897   9.8706 307.7165 0006647 181.3523 167.0902  1.00284729103590
RADUGA 11 [-]           
1 13669U 82113A   22258.10523979 -.00000083  00000+0  00000+0 0  9995
2 13669  11.9184 321.4327 0038254 253.9830 102.9165  0.97708357108138
RADUGA 12 [-]           
1 13974U 83028A   22257.85118574 -.00000033  00000+0  00000+0 0  9997
2 13974  11.0170 317.4845 0003053 131.8893 277.6984  1.00285529155637
RADUGA 13 [-]           
1 14307U 83088A   22257.80214384 -.00000022  00000+0  00000+0 0  9993
2 14307  12.1681 322.9807 0014557  47.4398 330.6596  0.98172789105485
RADUGA 14 [-]           
1 14725U 84016A   22258.60453267 -.00000214  00000+0  00000+0 0  9996
2 14725  11.2235 321.2393 0006031 146.6485 190.9175  1.00269802104355
RADUGA 15 [-]           
1 15057U 84063A   22258.56746579 -.00000361  00000+0  00000+0 0  9996
2 15057  11.3459 322.2287 0006661 160.9678 201.8636  1.00302225127365
RADUGA 16 [-]           
1 15946U 85070A   22258.47514689  .00000081  00000+0  00000+0 0  9995
2 15946  11.8098 326.8947 0003129 163.2506 224.8519  1.00292565108483
RADUGA 17 [-]           
1 16250U 85107A   22258.28906575 -.00000236  00000+0  00000+0 0  9996
2 16250  11.9338 328.2833 0015624 181.3382 229.0020  1.00134976137944
RADUGA 18 [-]           
1 16497U 86007A   22258.56008703 -.00000134  00000+0  00000+0 0  9993
2 16497  12.7422 330.9927 0076490 166.3577 167.9468  0.98812111132313
RADUGA 19 [-]           
1 17046U 86082A   22257.75464244 -.00000039  00000+0  00000+0 0  9997
2 17046  13.1735 334.9308 0014619 150.6046 183.9723  0.98459588129408
RADUGA 20 [-]           
1 17611U 87028A   22258.38068699 -.00000095  00000+0  00000+0 0  9992
2 17611  15.1884 338.4456 0031610 139.0428 245.1379  0.95961151125169
RADUGA 21 [-]           
1 18631U 87100A   22258.45305262  .00000105  00000+0  00000+0 0  9995
2 18631  13.2609 335.7736 0004354 134.5292 252.8614  1.00296153127340
RADUGA 22 [-]           
1 19596U 88095A   22258.56826472 -.00000374  00000+0  00000+0 0  9992
2 19596  13.2463 340.0661 0008411 141.6477 202.2401  1.00218897107909
RADUGA 23 [-]           
1 19928U 89030A   22257.91262888  .00000103  00000+0  00000+0 0  9993
2 19928  13.3953 341.8906 0023116 163.0433 221.1688  1.00336317121106
RADUGA-1 1 [-]          
1 20083U 89048A   22258.11012302 -.00000201  00000+0  00000+0 0  9993
2 20083  14.1502 344.9520 0023409 116.8891 243.3387  0.98709531117738
RADUGA 24 [-]           
1 20367U 89098A   22257.89208041  .00000024  00000+0  00000+0 0  9996
2 20367  13.9713 344.1508 0002882 139.0218 252.1102  1.00214852119224
RADUGA 25 [-]           
1 20499U 90016A   22258.30457825 -.00000283  00000+0  00000+0 0  9995
2 20499  13.7409 344.8012 0006693 143.7133 265.3178  1.00184577119161
RADUGA 26 [-]           
1 21016U 90112A   22257.89246464 -.00000055  00000+0  00000+0 0  9993
2 21016  14.0568 348.0600 0008084  98.4949 295.9288  1.00319067116491
RADUGA-1 2 [-]          
1 21038U 90116A   22257.80832133  .00000084  00000+0  00000+0 0  9997
2 21038  14.0948 348.1335 0009564 105.2821 240.1522  1.00275045 33581
RADUGA 27 [-]           
1 21132U 91014A   22257.99708701  .00000082  00000+0  00000+0 0  9991
2 21132  14.6044 347.6744 0004749 110.2901 273.3842  1.00287146115569
RADUGA 28 [-]           
1 21821U 91087A   22258.60640771 -.00000280  00000+0  00000+0 0  9998
2 21821  14.3725 351.3951 0008967 127.9650 188.8432  1.00194744112575
RADUGA 29 [-]           
1 22557U 93013A   22257.92758934  .00000113  00000+0  00000+0 0  9995
2 22557  14.5804 355.5811 0008012 120.1095 249.5567  1.00354005107949
RADUGA 30 [-]           
1 22836U 93062A   22258.53520093 -.00000110  00000+0  00000+0 0  9998
2 22836  14.6225 357.5452 0001231  60.8587 203.3710  1.00258760 32252
RADUGA-1 3 [-]          
1 22981U 94008A   22258.60696081 -.00000296  00000+0  00000+0 0  9994
2 22981  14.7011 358.6943 0005192 113.8474 196.8085  1.00240088104736
RADUGA 31 [-]           
1 23010U 94012A   22257.89037421 -.00000007  00000+0  00000+0 0  9990
2 23010  14.6708 358.6981 0006608 100.6351 276.3034  1.00332393104600
RADUGA 32 [-]           
1 23448U 94087A   22258.59235937 -.00000117  00000+0  00000+0 0  9999
2 23448  14.6545   1.4049 0005307 188.0354  93.6551  1.00260930119135
RADUGA-1 4 [-]          
1 25642U 99010A   22257.91252703  .00000110  00000+0  00000+0 0  9995
2 25642  15.2277  12.9875 0001628 205.5705 143.3145  1.00308259 86191
RADUGA-1 5 [-]          
1 26477U 00049A   22257.98507772  .00000103  00000+0  00000+0 0  9994
2 26477  13.1784  17.8571 0006052  73.1974 301.6940  1.00285627 80670
RADUGA-1 6 [-]          
1 26936U 01045A   22258.09146512 -.00000158  00000+0  00000+0 0  9996
2 26936  13.3478  24.1766 0016801 161.2473 214.0709  0.97745537 75170
RADUGA-1 7 [-]          
1 28194U 04010A   22258.57116950 -.00000375  00000+0  00000+0 0  9996
2 28194  12.0717  31.0041 0002402 143.2343 150.2523  1.00233260 67672
RADUGA-1M 1 [-]         
1 32373U 07058A   22258.48776064 -.00000061  00000+0  00000+0 0  9995
2 32373   7.0906  63.4183 0003603  42.5151 331.9827  0.99393733 38771
RADUGA-1 8 [-]          
1 34264U 09010A   22258.32698990 -.00000290  00000+0  00000+0 0  9994
2 34264   9.3997  53.4055 0014241   7.0564  11.3837  0.99827856 49497
RADUGA-1M 2 [+]         
1 36358U 10002A   22258.54782029 -.00000193  00000+0  00000+0 0  9996
2 36358   0.0747 118.6653 0000616 205.1871 312.8825  1.00273113 36345
RADUGA-1M 3 [+]         
1 39375U 13062A   22258.27030966  .00000146  00000+0  00000+0 0  9990
2 39375   2.4538  88.7024 0002015 147.2854 250.5442  1.00275088 32388
